STARLINK-2640           
1 48438U 21040L   26078.52821216  .00001352  00000+0  57782-4 0  9997
2 48438  53.1606 132.4381 0001424  88.8746 271.2418 15.30196558268187
STARLINK-2583           
1 48439U 21040M   26078.52610405  .00002918  00000+0  11061-3 0  9992
2 48439  53.1606 132.4486 0001411  90.2343 269.8820 15.30201871268185
STARLINK-2682           
1 48440U 21040N   26079.24140413  .00016509  00000+0  56774-3 0  9992
2 48440  53.1577 129.1299 0001013  79.8544 280.2571 15.30230032268296
STARLINK-2702           
1 48441U 21040P   26078.51979113  .00001109  00000+0  49575-4 0  9991
2 48441  53.1605 132.4832 0001443  95.2568 264.8598 15.30196709268181
STARLINK-2644           
1 48442U 21040Q   26079.16660950 -.00000195  00000+0  55559-5 0  9995
2 48442  53.1574 129.4538 0001246  73.8106 286.3032 15.30193086268285
STARLINK-2663           
1 48443U 21040R   26079.29407977  .00000699  00000+0  35722-4 0  9995
2 48443  53.1601 128.8739 0001302  96.4949 263.6200 15.30197229268303
STARLINK-2645           
1 48444U 21040S   26079.29092008 -.00000701  00000+0 -11558-4 0  9998
2 48444  53.1606 128.8871 0001112  82.8376 277.2751 15.30195529268301
STARLINK-2634           
1 48445U 21040T   26079.28775595 -.00002991  00000+0 -88909-4 0  9994
2 48445  53.1590 128.9061 0001119 102.1006 258.0120 15.30191346268309
STARLINK-2655           
1 48449U 21040X   26079.27723012  .00000554  00000+0  30819-4 0  9992
2 48449  53.1610 128.9609 0001094  97.1328 262.9798 15.30193513268309
STARLINK-2703           
1 48452U 21040AA  26079.27407573  .00001740  00000+0  70868-4 0  9993
2 48452  53.1615 128.9875 0001272  87.4420 272.6727 15.30190344268305
STARLINK-2620           
1 48453U 21040AB  26078.41548862  .00006731  00000+0  23908-3 0  9993
2 48453  53.1592 132.9420 0001243  69.7081 290.4054 15.30211388268173
STARLINK-2654           
1 48454U 21040AC  26078.54296486  .00008643  00000+0  30358-3 0  9991
2 48454  53.1609 132.3539 0001337  89.2115 270.9039 15.30203117268196
STARLINK-2497           
1 48455U 21040AD  26079.12763302  .00000294  00000+0  22066-4 0  9995
2 48455  53.1601 129.6447 0001405  91.3800 268.7361 15.30192390268279
STARLINK-2698           
1 48458U 21040AG  26079.28470557  .00000038  00000+0  13406-4 0  9996
2 48458  53.1575 129.5829 0001273  80.9227 279.1917 15.30190345269019
STARLINK-2579           
1 48459U 21040AH  26079.11816236  .00001925  00000+0  77107-4 0  9991
2 48459  53.1599 129.7228 0001401  89.5460 270.5701 15.30194765268293
STARLINK-2582           
1 48460U 21040AJ  26079.28940431  .00085557  00000+0  11351-2 0  9996
2 48460  53.0564  79.0782 0004905  44.1221 316.0181 15.57531769269525
