[{"OBJECT_NAME":"STARLINK-2640","OBJECT_ID":"2021-040L","EPOCH":"2026-03-19T12:40:37.530624","MEAN_MOTION":15.30196558,"ECCENTRICITY":0.00014247,"INCLINATION":53.1606,"RA_OF_ASC_NODE":132.4381,"ARG_OF_PERICENTER":88.8746,"MEAN_ANOMALY":271.2418,"EPHEMERIS_TYPE":0,"CLASSIFICATION_TYPE":"U","NORAD_CAT_ID":48438,"ELEMENT_SET_NO":999,"REV_AT_EPOCH":26818,"BSTAR":5.7781855e-5,"MEAN_MOTION_DOT":1.352e-5,"MEAN_MOTION_DDOT":0},{"OBJECT_NAME":"STARLINK-2583","OBJECT_ID":"2021-040M","EPOCH":"2026-03-19T12:37:35.389920","MEAN_MOTION":15.30201871,"ECCENTRICITY":0.00014118,"INCLINATION":53.1606,"RA_OF_ASC_NODE":132.4486,"ARG_OF_PERICENTER":90.2343,"MEAN_ANOMALY":269.882,"EPHEMERIS_TYPE":0,"CLASSIFICATION_TYPE":"U","NORAD_CAT_ID":48439,"ELEMENT_SET_NO":999,"REV_AT_EPOCH":26818,"BSTAR":0.0001106092,"MEAN_MOTION_DOT":2.918e-5,"MEAN_MOTION_DDOT":0},{"OBJECT_NAME":"STARLINK-2682","OBJECT_ID":"2021-040N","EPOCH":"2026-03-20T05:47:37.316832","MEAN_MOTION":15.30230032,"ECCENTRICITY":0.00010134,"INCLINATION":53.1577,"RA_OF_ASC_NODE":129.1299,"ARG_OF_PERICENTER":79.8544,"MEAN_ANOMALY":280.2571,"EPHEMERIS_TYPE":0,"CLASSIFICATION_TYPE":"U","NORAD_CAT_ID":48440,"ELEMENT_SET_NO":999,"REV_AT_EPOCH":26829,"BSTAR":0.0005677357,"MEAN_MOTION_DOT":0.00016509,"MEAN_MOTION_DDOT":0},{"OBJECT_NAME":"STARLINK-2702","OBJECT_ID":"2021-040P","EPOCH":"2026-03-19T12:28:29.953632","MEAN_MOTION":15.30196709,"ECCENTRICITY":0.0001443,"INCLINATION":53.1605,"RA_OF_ASC_NODE":132.4832,"ARG_OF_PERICENTER":95.2568,"MEAN_ANOMALY":264.8598,"EPHEMERIS_TYPE":0,"CLASSIFICATION_TYPE":"U","NORAD_CAT_ID":48441,"ELEMENT_SET_NO":999,"REV_AT_EPOCH":26818,"BSTAR":4.957522e-5,"MEAN_MOTION_DOT":1.109e-5,"MEAN_MOTION_DDOT":0},{"OBJECT_NAME":"STARLINK-2644","OBJECT_ID":"2021-040Q","EPOCH":"2026-03-20T03:59:55.060800","MEAN_MOTION":15.30193086,"ECCENTRICITY":0.00012468,"INCLINATION":53.1574,"RA_OF_ASC_NODE":129.4538,"ARG_OF_PERICENTER":73.8106,"MEAN_ANOMALY":286.3032,"EPHEMERIS_TYPE":0,"CLASSIFICATION_TYPE":"U","NORAD_CAT_ID":48442,"ELEMENT_SET_NO":999,"REV_AT_EPOCH":26828,"BSTAR":5.555893e-6,"MEAN_MOTION_DOT":-1.95e-6,"MEAN_MOTION_DDOT":0},{"OBJECT_NAME":"STARLINK-2663","OBJECT_ID":"2021-040R","EPOCH":"2026-03-20T07:03:28.492128","MEAN_MOTION":15.30197229,"ECCENTRICITY":0.00013021,"INCLINATION":53.1601,"RA_OF_ASC_NODE":128.8739,"ARG_OF_PERICENTER":96.4949,"MEAN_ANOMALY":263.62,"EPHEMERIS_TYPE":0,"CLASSIFICATION_TYPE":"U","NORAD_CAT_ID":48443,"ELEMENT_SET_NO":999,"REV_AT_EPOCH":26830,"BSTAR":3.5721837e-5,"MEAN_MOTION_DOT":6.99e-6,"MEAN_MOTION_DDOT":0},{"OBJECT_NAME":"STARLINK-2645","OBJECT_ID":"2021-040S","EPOCH":"2026-03-20T06:58:55.494912","MEAN_MOTION":15.30195529,"ECCENTRICITY":0.00011122,"INCLINATION":53.1606,"RA_OF_ASC_NODE":128.8871,"ARG_OF_PERICENTER":82.8376,"MEAN_ANOMALY":277.2751,"EPHEMERIS_TYPE":0,"CLASSIFICATION_TYPE":"U","NORAD_CAT_ID":48444,"ELEMENT_SET_NO":999,"REV_AT_EPOCH":26830,"BSTAR":-1.1558461e-5,"MEAN_MOTION_DOT":-7.01e-6,"MEAN_MOTION_DDOT":0},{"OBJECT_NAME":"STARLINK-2634","OBJECT_ID":"2021-040T","EPOCH":"2026-03-20T06:54:22.114080","MEAN_MOTION":15.30191346,"ECCENTRICITY":0.00011194,"INCLINATION":53.159,"RA_OF_ASC_NODE":128.9061,"ARG_OF_PERICENTER":102.1006,"MEAN_ANOMALY":258.012,"EPHEMERIS_TYPE":0,"CLASSIFICATION_TYPE":"U","NORAD_CAT_ID":48445,"ELEMENT_SET_NO":999,"REV_AT_EPOCH":26830,"BSTAR":-8.8908999e-5,"MEAN_MOTION_DOT":-2.991e-5,"MEAN_MOTION_DDOT":0},{"OBJECT_NAME":"STARLINK-2655","OBJECT_ID":"2021-040X","EPOCH":"2026-03-20T06:39:12.682368","MEAN_MOTION":15.30193513,"ECCENTRICITY":0.00010942,"INCLINATION":53.161,"RA_OF_ASC_NODE":128.9609,"ARG_OF_PERICENTER":97.1328,"MEAN_ANOMALY":262.9798,"EPHEMERIS_TYPE":0,"CLASSIFICATION_TYPE":"U","NORAD_CAT_ID":48449,"ELEMENT_SET_NO":999,"REV_AT_EPOCH":26830,"BSTAR":3.0819084e-5,"MEAN_MOTION_DOT":5.54e-6,"MEAN_MOTION_DDOT":0},{"OBJECT_NAME":"STARLINK-2703","OBJECT_ID":"2021-040AA","EPOCH":"2026-03-20T06:34:40.143072","MEAN_MOTION":15.30190344,"ECCENTRICITY":0.00012724,"INCLINATION":53.1615,"RA_OF_ASC_NODE":128.9875,"ARG_OF_PERICENTER":87.442,"MEAN_ANOMALY":272.6727,"EPHEMERIS_TYPE":0,"CLASSIFICATION_TYPE":"U","NORAD_CAT_ID":48452,"ELEMENT_SET_NO":999,"REV_AT_EPOCH":26830,"BSTAR":7.0867627e-5,"MEAN_MOTION_DOT":1.74e-5,"MEAN_MOTION_DDOT":0},{"OBJECT_NAME":"STARLINK-2620","OBJECT_ID":"2021-040AB","EPOCH":"2026-03-19T09:58:18.216768","MEAN_MOTION":15.30211388,"ECCENTRICITY":0.00012437,"INCLINATION":53.1592,"RA_OF_ASC_NODE":132.942,"ARG_OF_PERICENTER":69.7081,"MEAN_ANOMALY":290.4054,"EPHEMERIS_TYPE":0,"CLASSIFICATION_TYPE":"U","NORAD_CAT_ID":48453,"ELEMENT_SET_NO":999,"REV_AT_EPOCH":26817,"BSTAR":0.00023908091,"MEAN_MOTION_DOT":6.731e-5,"MEAN_MOTION_DDOT":0},{"OBJECT_NAME":"STARLINK-2654","OBJECT_ID":"2021-040AC","EPOCH":"2026-03-19T13:01:52.163904","MEAN_MOTION":15.30203117,"ECCENTRICITY":0.00013375,"INCLINATION":53.1609,"RA_OF_ASC_NODE":132.3539,"ARG_OF_PERICENTER":89.2115,"MEAN_ANOMALY":270.9039,"EPHEMERIS_TYPE":0,"CLASSIFICATION_TYPE":"U","NORAD_CAT_ID":48454,"ELEMENT_SET_NO":999,"REV_AT_EPOCH":26819,"BSTAR":0.00030358003,"MEAN_MOTION_DOT":8.643e-5,"MEAN_MOTION_DDOT":0},{"OBJECT_NAME":"STARLINK-2497","OBJECT_ID":"2021-040AD","EPOCH":"2026-03-20T03:03:47.492928","MEAN_MOTION":15.3019239,"ECCENTRICITY":0.00014053,"INCLINATION":53.1601,"RA_OF_ASC_NODE":129.6447,"ARG_OF_PERICENTER":91.38,"MEAN_ANOMALY":268.7361,"EPHEMERIS_TYPE":0,"CLASSIFICATION_TYPE":"U","NORAD_CAT_ID":48455,"ELEMENT_SET_NO":999,"REV_AT_EPOCH":26827,"BSTAR":2.206638e-5,"MEAN_MOTION_DOT":2.94e-6,"MEAN_MOTION_DDOT":0},{"OBJECT_NAME":"STARLINK-2698","OBJECT_ID":"2021-040AG","EPOCH":"2026-03-20T06:49:58.561248","MEAN_MOTION":15.30190345,"ECCENTRICITY":0.00012732,"INCLINATION":53.1575,"RA_OF_ASC_NODE":129.5829,"ARG_OF_PERICENTER":80.9227,"MEAN_ANOMALY":279.1917,"EPHEMERIS_TYPE":0,"CLASSIFICATION_TYPE":"U","NORAD_CAT_ID":48458,"ELEMENT_SET_NO":999,"REV_AT_EPOCH":26901,"BSTAR":1.3405904e-5,"MEAN_MOTION_DOT":3.8e-7,"MEAN_MOTION_DDOT":0},{"OBJECT_NAME":"STARLINK-2579","OBJECT_ID":"2021-040AH","EPOCH":"2026-03-20T02:50:09.227904","MEAN_MOTION":15.30194765,"ECCENTRICITY":0.00014018,"INCLINATION":53.1599,"RA_OF_ASC_NODE":129.7228,"ARG_OF_PERICENTER":89.546,"MEAN_ANOMALY":270.5701,"EPHEMERIS_TYPE":0,"CLASSIFICATION_TYPE":"U","NORAD_CAT_ID":48459,"ELEMENT_SET_NO":999,"REV_AT_EPOCH":26829,"BSTAR":7.7107342e-5,"MEAN_MOTION_DOT":1.925e-5,"MEAN_MOTION_DDOT":0},{"OBJECT_NAME":"STARLINK-2582","OBJECT_ID":"2021-040AJ","EPOCH":"2026-03-20T06:56:44.532384","MEAN_MOTION":15.57531769,"ECCENTRICITY":0.00049056,"INCLINATION":53.0564,"RA_OF_ASC_NODE":79.0782,"ARG_OF_PERICENTER":44.1221,"MEAN_ANOMALY":316.0181,"EPHEMERIS_TYPE":0,"CLASSIFICATION_TYPE":"U","NORAD_CAT_ID":48460,"ELEMENT_SET_NO":999,"REV_AT_EPOCH":26952,"BSTAR":0.0011351215,"MEAN_MOTION_DOT":0.00085557,"MEAN_MOTION_DDOT":0}]
